{
  "links" : {
    "next" : "https://api.nasa.gov/neo/rest/v1/feed?start_date=2013-01-09&end_date=2013-01-09&detailed=true&api_key=t0TVs3DtDT2H8Oy2Zy8m2eVrNsAVKAexjcZXUckd",
    "prev" : "https://api.nasa.gov/neo/rest/v1/feed?start_date=2013-01-07&end_date=2013-01-07&detailed=true&api_key=t0TVs3DtDT2H8Oy2Zy8m2eVrNsAVKAexjcZXUckd",
    "self" : "https://api.nasa.gov/neo/rest/v1/feed?start_date=2013-01-08&end_date=2013-01-08&detailed=true&api_key=t0TVs3DtDT2H8Oy2Zy8m2eVrNsAVKAexjcZXUckd"
  },
  "element_count" : 7,
  "near_earth_objects" : {
    "2013-01-08" : [ {
      "links" : {
        "self" : "https://api.nasa.gov/neo/rest/v1/neo/3761480?api_key=t0TVs3DtDT2H8Oy2Zy8m2eVrNsAVKAexjcZXUckd"
      },
      "neo_reference_id" : "3761480",
      "name" : "(2016 UZ25)",
      "nasa_jpl_url" : "http://ssd.jpl.nasa.gov/sbdb.cgi?sstr=3761480",
      "absolute_magnitude_h" : 21.6,
      "estimated_diameter" : {
        "kilometers" : {
          "estimated_diameter_min" : 0.1272198785,
          "estimated_diameter_max" : 0.2844722965
        },
        "meters" : {
          "estimated_diameter_min" : 127.2198785394,
          "estimated_diameter_max" : 284.4722965033
        },
        "miles" : {
          "estimated_diameter_min" : 0.0790507431,
          "estimated_diameter_max" : 0.1767628354
        },
        "feet" : {
          "estimated_diameter_min" : 417.3880663071,
          "estimated_diameter_max" : 933.3080892598
        }
      },
      "is_potentially_hazardous_asteroid" : true,
      "close_approach_data" : [ {
        "close_approach_date" : "2013-01-08",
        "epoch_date_close_approach" : 1357632000000,
        "relative_velocity" : {
          "kilometers_per_second" : "20.6009926385",
          "kilometers_per_hour" : "74163.5734985618",
          "miles_per_hour" : "46082.3604330369"
        },
        "miss_distance" : {
          "astronomical" : "0.4145712035",
          "lunar" : "161.2681884766",
          "kilometers" : "62018968",
          "miles" : "38536800"
        },
        "orbiting_body" : "Earth"
      } ],
      "orbital_data" : {
        "orbit_id" : "21",
        "orbit_determination_date" : "2017-09-15 06:22:49",
        "orbit_uncertainty" : "6",
        "minimum_orbit_intersection" : ".0215439",
        "jupiter_tisserand_invariant" : "2.927",
        "epoch_osculation" : "2458000.5",
        "eccentricity" : ".7947465685872241",
        "semi_major_axis" : "2.491291904844728",
        "inclination" : "3.815056072868748",
        "ascending_node_longitude" : "32.51545838084186",
        "orbital_period" : "1436.26756213985",
        "perihelion_distance" : ".511346212120251",
        "perihelion_argument" : "114.337358828758",
        "aphelion_distance" : "4.471237597569204",
        "perihelion_time" : "2457754.407213727767",
        "mean_anomaly" : "61.68307729933797",
        "mean_motion" : ".2506496766268587",
        "equinox" : "J2000"
      }
    } ]
  }
}